OBJECT_NAME,OBJECT_ID,EPOCH,MEAN_MOTION,ECCENTRICITY,INCLINATION,RA_OF_ASC_NODE,ARG_OF_PERICENTER,MEAN_ANOMALY,EPHEMERIS_TYPE,CLASSIFICATION_TYPE,NORAD_CAT_ID,ELEMENT_SET_NO,REV_AT_EPOCH,BSTAR,MEAN_MOTION_DOT,MEAN_MOTION_DDOT
HAWK-5A,2022-057AB,2026-06-11T10:21:53.740800,15.51184795,.00058854,97.6591,320.9098,96.1770,264.0152,0,U,52757,999,22545,.28251022E-3,.16429E-3,0
HAWK-6B,2023-011A,2026-06-10T22:52:40.676448,15.22872392,.00035018,40.4991,28.4311,327.0265,33.0326,0,U,55324,999,18689,.17994917E-3,.4111E-4,0
HAWK-6C,2023-011C,2026-06-09T09:05:18.780576,15.22867772,.00043141,40.4982,34.4522,308.3612,51.6810,0,U,55326,999,18666,.18394517E-3,.4206E-4,0
HAWK-6A,2023-011D,2026-06-11T08:18:23.285376,15.22877524,.00037682,40.4992,24.6026,316.5498,43.5014,0,U,55327,999,18696,.17656232E-3,.4031E-4,0
HAWK-7A,2023-054P,2026-06-11T14:34:08.315616,15.27298132,.00046036,97.2702,50.0862,67.6281,292.5446,0,U,56191,999,17617,.60094861E-4,.1536E-4,0
HAWK-7B,2023-054R,2026-06-11T14:34:00.511104,15.27305993,.00039554,97.2742,48.3484,79.3529,280.8156,0,U,56193,999,17617,.20017838E-3,.5283E-4,0
HAWK-7C,2023-054Y,2026-06-11T14:33:51.357888,15.27302585,.0003984,97.2718,49.1187,71.4778,288.6894,0,U,56200,999,17617,.19705781E-3,.5199E-4,0
